STARLINK-31983          
1 60602U 24150V   26129.99285969  .00003256  00000+0  10742-3 0  9995
2 60602  53.1617  21.8197 0001861  88.8924 271.2292 15.34415214 97351
STARLINK-31874          
1 60603U 24150W   26130.00762137 -.00002260  00000+0 -55839-4 0  9990
2 60603  53.1616  21.9116 0001079  93.6001 266.5125 15.34373906 97436
STARLINK-32039          
1 60604U 24150X   26130.02681060  .00001202  00000+0  52739-4 0  9997
2 60604  53.1615  24.8739 0001265  78.6792 281.4351 15.30178420 97398
ZHONGXING-4A            
1 60606U 24151A   26129.99311433 -.00000355  00000+0  00000+0 0  9996
2 60606   1.4136 271.2889 0000936 167.7131 264.5411  1.00269847  6372
STARLINK-11247 [DTC]    
1 60720U 24152A   26129.83060895 -.00000761  00000+0 -14230-5 0  9998
2 60720  53.1596 175.1706 0000911  86.0813 274.0309 15.69703735 98435
STARLINK-11259 [DTC]    
1 60721U 24152B   26129.82570259 -.00001129  00000+0 -44661-5 0  9998
2 60721  53.1584 175.1391 0000609  67.8115 292.2968 15.69704651 98430
STARLINK-11188 [DTC]    
1 60722U 24152C   26129.37511338 -.00001861  00000+0 -10505-4 0  9994
2 60722  53.1603 177.3012 0001207  92.3303 267.7853 15.69701842 98488
STARLINK-11272 [DTC]    
1 60723U 24152D   26129.42896427  .00001808  00000+0  19775-4 0  9993
2 60723  53.1586 176.9253 0001060  90.5384 269.5756 15.69716262 98379
STARLINK-11261 [DTC]    
1 60724U 24152E   26129.43387268 -.00005240  00000+0 -38445-4 0  9994
2 60724  53.1572 176.9561 0000909  91.9837 268.1285 15.69696239 98379
STARLINK-11263 [DTC]    
1 60725U 24152F   26130.12442468 -.00001120  00000+0 -43882-5 0  9992
2 60725  53.1601 173.4381 0001006  78.2294 281.8837 15.69706200 98486
STARLINK-11235 [DTC]    
1 60726U 24152G   26130.11950678  .00000581  00000+0  96536-5 0  9991
2 60726  53.1599 173.4074 0001246  97.8973 262.2186 15.69717634 98617
STARLINK-11080 [DTC]    
1 60727U 24152H   26129.47793086 -.00001868  00000+0 -10569-4 0  9999
2 60727  53.1597 176.5115 0001231  78.4430 281.6727 15.69693988 98513
STARLINK-11249 [DTC]    
1 60728U 24152J   26129.85502301 -.00004919  00000+0 -35767-4 0  9997
2 60728  53.1585 174.5948 0000807  97.5984 262.5125 15.69714525 98440
STARLINK-11146 [DTC]    
1 60729U 24152K   26129.85013269 -.00003127  00000+0 -20961-4 0  9998
2 60729  53.1585 174.5454 0001599 112.4435 247.6752 15.69698351 98572
STARLINK-11255 [DTC]    
1 60730U 24152L   26129.84522727 -.00000580  00000+0  73904-7 0  9990
2 60730  53.1601 174.5297 0001138  81.3652 278.7495 15.69699141 98456
STARLINK-11254 [DTC]    
1 60731U 24152M   26129.84032288 -.00002434  00000+0 -15245-4 0  9991
2 60731  53.1603 174.4957 0001005  98.1237 261.9895 15.69697574 98455
STARLINK-11266 [DTC]    
1 60732U 24152N   26129.83541234 -.00000874  00000+0 -23626-5 0  9996
2 60732  53.1588 174.4552 0000838  97.0792 263.0321 15.69701216 98441
STARLINK-32253          
1 60733U 24152P   26130.03183833 -.00004244  00000+0 -13121-3 0  9990
2 60733  53.1611 343.4172 0001047  95.3716 264.7405 15.30208194 96191
STARLINK-32179          
1 60734U 24152Q   26130.00874405  .00000383  00000+0  25056-4 0  9999
2 60734  53.1605 343.9948 0001264  71.9709 288.1430 15.30191426 96102
STARLINK-32289          
1 60737U 24152T   26129.99608387 -.00002952  00000+0 -87621-4 0  9994
2 60737  53.1615 343.9163 0001191  79.7324 280.3811 15.30186288 96234
STARLINK-32304          
1 60738U 24152U   26129.86229867 -.00000307  00000+0  17746-5 0  9996
2 60738  53.1617 344.5027 0001293  85.3070 274.8079 15.30184703 96219
STARLINK-32235          
1 60739U 24152V   26129.85912078 -.00000381  00000+0 -72586-6 0  9996
2 60739  53.1609 344.4821 0001226  84.7770 275.3370 15.30182204 96166
STARLINK-32315          
1 60740U 24152W   26129.85595245 -.00000756  00000+0 -13422-4 0  9999
2 60740  53.1608 344.4631 0001188  87.1227 272.9910 15.30187714 96082
2024-153A               
1 60745U 24153A   26130.21010203  .00032170  00000+0  71724-3 0  9994
2 60745  97.6682 269.8602 0007905 268.0037  92.0305 15.43493650 94240
2024-153B               
1 60746U 24153B   26130.18877190  .00009348  00000+0  30126-3 0  9999
2 60746  97.6729 268.2386 0008790 296.2226  63.8111 15.32381418 94136
2024-153C               
1 60747U 24153C   26130.16540078  .00017544  00000+0  44545-3 0  9997
2 60747  97.6727 270.7049 0008334 284.2367  75.7952 15.39692317 94298
2024-153D               
1 60748U 24153D   26130.16754227  .00010029  00000+0  38342-3 0  9990
2 60748  97.6738 266.9881 0001500  15.0917 345.0365 15.26806742 94040
2024-153E               
1 60749U 24153E   26130.17603979  .00009175  00000+0  35955-3 0  9996
2 60749  97.6667 266.5097 0002854  75.7782 284.3773 15.26007296 94037
2024-153F               
1 60750U 24153F   26130.22412330  .00009347  00000+0  37760-3 0  9990
2 60750  97.6662 265.8606 0005915  34.7842 325.3781 15.24972522 94019
STARLINK-11242 [DTC]    
1 60903U 24154A   26129.46688607 -.00001893  00000+0 -10777-4 0  9997
2 60903  53.1589 191.3984 0001017  49.7960 310.3147 15.69691970 98065
