OBJECT_NAME,OBJECT_ID,EPOCH,MEAN_MOTION,ECCENTRICITY,INCLINATION,RA_OF_ASC_NODE,ARG_OF_PERICENTER,MEAN_ANOMALY,EPHEMERIS_TYPE,CLASSIFICATION_TYPE,NORAD_CAT_ID,ELEMENT_SET_NO,REV_AT_EPOCH,BSTAR,MEAN_MOTION_DOT,MEAN_MOTION_DDOT
STARLINK-31983,2024-150V,2026-05-09T23:49:43.077216,15.34415214,.0001861,53.1617,21.8197,88.8924,271.2292,0,U,60602,999,9735,.10742E-3,.3256E-4,0
STARLINK-31874,2024-150W,2026-05-10T00:10:58.486368,15.34373906,.0001079,53.1616,21.9116,93.6001,266.5125,0,U,60603,999,9743,-.55839E-4,-.226E-4,0
STARLINK-32039,2024-150X,2026-05-10T00:38:36.435840,15.30178420,.0001265,53.1615,24.8739,78.6792,281.4351,0,U,60604,999,9739,.52739E-4,.1202E-4,0
ZHONGXING-4A,2024-151A,2026-05-09T23:50:05.078112,1.00269847,.0000936,1.4136,271.2889,167.7131,264.5411,0,U,60606,999,637,0,-.355E-5,0
STARLINK-11247 [DTC],2024-152A,2026-05-09T19:56:04.613280,15.69703735,.00009111,53.1596,175.1706,86.0813,274.0309,0,U,60720,999,9843,-.1423034E-5,-.761E-5,0
STARLINK-11259 [DTC],2024-152B,2026-05-09T19:49:00.703776,15.69704651,.00006093,53.1584,175.1391,67.8115,292.2968,0,U,60721,999,9843,-.4466144E-5,-.1129E-4,0
STARLINK-11188 [DTC],2024-152C,2026-05-09T09:00:09.796032,15.69701842,.00012076,53.1603,177.3012,92.3303,267.7853,0,U,60722,999,9848,-.10505249E-4,-.1861E-4,0
STARLINK-11272 [DTC],2024-152D,2026-05-09T10:17:42.512928,15.69716262,.00010608,53.1586,176.9253,90.5384,269.5756,0,U,60723,999,9837,.19775477E-4,.1808E-4,0
STARLINK-11261 [DTC],2024-152E,2026-05-09T10:24:46.599552,15.69696239,.00009094,53.1572,176.9561,91.9837,268.1285,0,U,60724,999,9837,-.3844516E-4,-.524E-4,0
STARLINK-11263 [DTC],2024-152F,2026-05-10T02:59:10.292352,15.69706200,.0001006,53.1601,173.4381,78.2294,281.8837,0,U,60725,999,9848,-.43882E-5,-.112E-4,0
STARLINK-11235 [DTC],2024-152G,2026-05-10T02:52:05.385792,15.69717634,.0001246,53.1599,173.4074,97.8973,262.2186,0,U,60726,999,9861,.96536E-5,.581E-5,0
STARLINK-11080 [DTC],2024-152H,2026-05-09T11:28:13.226304,15.69693988,.00012315,53.1597,176.5115,78.4430,281.6727,0,U,60727,999,9851,-.10568987E-4,-.1868E-4,0
STARLINK-11249 [DTC],2024-152J,2026-05-09T20:31:13.988064,15.69714525,.0000807,53.1585,174.5948,97.5984,262.5125,0,U,60728,999,9844,-.35767E-4,-.4919E-4,0
STARLINK-11146 [DTC],2024-152K,2026-05-09T20:24:11.464416,15.69698351,.0001599,53.1585,174.5454,112.4435,247.6752,0,U,60729,999,9857,-.20961E-4,-.3127E-4,0
STARLINK-11255 [DTC],2024-152L,2026-05-09T20:17:07.636128,15.69699141,.0001138,53.1601,174.5297,81.3652,278.7495,0,U,60730,999,9845,.73904E-7,-.58E-5,0
STARLINK-11254 [DTC],2024-152M,2026-05-09T20:10:03.896832,15.69697574,.00010055,53.1603,174.4957,98.1237,261.9895,0,U,60731,999,9845,-.15244522E-4,-.2434E-4,0
STARLINK-11266 [DTC],2024-152N,2026-05-09T20:02:59.626176,15.69701216,.00008385,53.1588,174.4552,97.0792,263.0321,0,U,60732,999,9844,-.2362601E-5,-.874E-5,0
STARLINK-32253,2024-152P,2026-05-10T00:45:50.831712,15.30208194,.0001047,53.1611,343.4172,95.3716,264.7405,0,U,60733,999,9619,-.13121E-3,-.4244E-4,0
STARLINK-32179,2024-152Q,2026-05-10T00:12:35.485920,15.30191426,.0001264,53.1605,343.9948,71.9709,288.1430,0,U,60734,999,9610,.25056E-4,.383E-5,0
STARLINK-32289,2024-152T,2026-05-09T23:54:21.646368,15.30186288,.0001191,53.1615,343.9163,79.7324,280.3811,0,U,60737,999,9623,-.87621E-4,-.2952E-4,0
STARLINK-32304,2024-152U,2026-05-09T20:41:42.605088,15.30184703,.0001293,53.1617,344.5027,85.3070,274.8079,0,U,60738,999,9621,.17746E-5,-.307E-5,0
STARLINK-32235,2024-152V,2026-05-09T20:37:08.035392,15.30182204,.00012266,53.1609,344.4821,84.7770,275.3370,0,U,60739,999,9616,-.725864E-6,-.381E-5,0
STARLINK-32315,2024-152W,2026-05-09T20:32:34.291680,15.30187714,.00011881,53.1608,344.4631,87.1227,272.9910,0,U,60740,999,9608,-.13422109E-4,-.756E-5,0
2024-153A,2024-153A,2026-05-10T05:02:32.815392,15.43493650,.0007905,97.6682,269.8602,268.0037,92.0305,0,U,60745,999,9424,.71724E-3,.3217E-3,0
2024-153B,2024-153B,2026-05-10T04:31:49.892160,15.32381418,.000879,97.6729,268.2386,296.2226,63.8111,0,U,60746,999,9413,.30126E-3,.9348E-4,0
2024-153C,2024-153C,2026-05-10T03:58:10.627392,15.39692317,.0008334,97.6727,270.7049,284.2367,75.7952,0,U,60747,999,9429,.44545E-3,.17544E-3,0
2024-153D,2024-153D,2026-05-10T04:01:15.652128,15.26806742,.00015,97.6738,266.9881,15.0917,345.0365,0,U,60748,999,9404,.38342E-3,.10029E-3,0
2024-153E,2024-153E,2026-05-10T04:13:29.837856,15.26007296,.0002854,97.6667,266.5097,75.7782,284.3773,0,U,60749,999,9403,.35955E-3,.9175E-4,0
2024-153F,2024-153F,2026-05-10T05:22:44.253120,15.24972522,.0005915,97.6662,265.8606,34.7842,325.3781,0,U,60750,999,9401,.3776E-3,.9347E-4,0
STARLINK-11242 [DTC],2024-154A,2026-05-09T11:12:18.956448,15.69691970,.00010172,53.1589,191.3984,49.7960,310.3147,0,U,60903,999,9806,-.10777077E-4,-.1893E-4,0
